FLOCK 3P-70             
1 41980U 17008AJ  17364.60065243  .00001406  00000-0  61505-4 0  9997
2 41980  97.4754  65.4273 0007417 217.8356 142.2360 15.23727523 48274
FLOCK 3P-73             
1 41981U 17008AK  17364.61010844  .00003208  00000-0  13652-3 0  9997
2 41981  97.4761  65.4166 0007636 218.9726 141.0962 15.23712115 48401
FLOCK 3P-88             
1 41982U 17008AL  17364.40048993  .00001225  00000-0  53951-4 0  9995
2 41982  97.4752  65.2243 0007438 219.2508 140.8191 15.23741068 47340
FLOCK 3P-85             
1 41983U 17008AM  17364.84567945  .00002611  00000-0  11143-3 0  9993
2 41983  97.4758  65.7109 0007344 221.3181 138.7501 15.23788206 48314
FLOCK 3P-79             
1 41984U 17008AN  17364.25501751  .00001336  00000-0  58494-4 0  9996
2 41984  97.4754  65.1200 0006977 222.9155 137.1539 15.23780090 48223
FLOCK 3P-86             
1 41985U 17008AP  17364.25634284  .00001349  00000-0  59068-4 0  9997
2 41985  97.4754  65.1129 0006966 222.0770 137.9933 15.23765103 48219
FLOCK 3P-36             
1 41986U 17008AQ  17364.12751701  .00001317  00000-0  57698-4 0  9990
2 41986  97.4737  64.9041 0006763 219.6452 140.4291 15.23783508 47680
FLOCK 3P-30             
1 41987U 17008AR  17364.18463360  .00001493  00000-0  65097-4 0  9995
2 41987  97.4737  64.9815 0006641 220.5689 139.5053 15.23740936 48165
FLOCK 3P-34             
1 41988U 17008AS  17364.85304196  .00001343  00000-0  58793-4 0  9990
2 41988  97.4732  65.6032 0006938 213.9926 146.0867 15.23783319 47795
FLOCK 3P-35             
1 41989U 17008AT  17364.72470065  .00001299  00000-0  56992-4 0  9995
2 41989  97.4731  65.4665 0007087 214.5185 145.5592 15.23759593 47779
FLOCK 3P-33             
1 41990U 17008AU  17364.71949123  .00001238  00000-0  54432-4 0  9992
2 41990  97.4732  65.4801 0006705 215.2870 144.7924 15.23790001 47778
LEMUR-2-SATCHMO         
1 41991U 17008AV  17364.61214731  .00001406  00000-0  62960-4 0  9994
2 41991  97.4722  65.1495 0006784 219.9211 140.1527 15.22916001 47746
LEMUR-2-MIA-GRACE       
1 41992U 17008AW  17364.43098518  .00001818  00000-0  79436-4 0  9991
2 41992  97.4732  65.0970 0006712 220.4013 139.6726 15.23380245 47721
LEMUR-2-SMITA-SHARAD    
1 41993U 17008AX  17364.39165087  .00001433  00000-0  63800-4 0  9994
2 41993  97.4723  64.9868 0006705 220.6402 139.4335 15.23082284 47717
LEMUR-2-SPIRE-MINIONS   
1 41994U 17008AY  17364.43960803  .00001831  00000-0  80107-4 0  9990
2 41994  97.4729  65.0765 0006775 219.4332 140.6412 15.23339310 47723
LEMUR-2-RDEATON         
1 41995U 17008AZ  17364.77835495  .00001420  00000-0  63147-4 0  9995
2 41995  97.4724  65.3930 0007532 235.9780 124.0742 15.23138348 48459
LEMUR-2-NOGUECORREIG    
1 41996U 17008BA  17364.42554461  .00001284  00000-0  57034-4 0  9995
2 41996  97.4731  65.1077 0007457 237.2246 122.8273 15.23347488 47626
LEMUR-2-JOBANPUTRA      
1 41997U 17008BB  17364.60025041  .00001662  00000-0  72675-4 0  9991
2 41997  97.4733  65.3358 0007429 236.4516 123.6012 15.23481327 47747
LEMUR-2-TACHIKOMA       
1 41998U 17008BC  17364.39202548  .00001470  00000-0  65472-4 0  9991
2 41998  97.4724  64.9878 0007419 237.9217 122.1300 15.23036077 47633
BGUSAT                  
1 41999U 17008BD  17364.57273442  .00001970  00000-0  84703-4 0  9996
2 41999  97.4742  65.3897 0007333 237.0736 122.9796 15.23832951 47746
DIDO-2                  
1 42000U 17008BE  17364.60701646  .00001185  00000-0  53675-4 0  9998
2 42000  97.4719  65.1537 0007398 237.9632 122.0886 15.22838645 47744
FLOCK 3P-49             
1 42001U 17008BF  17364.77189708  .00001384  00000-0  60571-4 0  9990
2 42001  97.4734  65.5672 0007020 236.8303 123.2261 15.23745185 48301
FLOCK 3P-67             
1 42002U 17008BG  17364.77278417  .00002475  00000-0  10546-3 0  9995
2 42002  97.4735  65.5595 0006940 235.3304 124.7280 15.23897147 48462
FLOCK 3P-68             
1 42003U 17008BH  17364.38493127  .00001357  00000-0  59357-4 0  9992
2 42003  97.4730  65.1529 0007098 235.9614 124.0949 15.23784485 48045
FLOCK 3P-41             
1 42004U 17008BJ  17364.43877800  .00001524  00000-0  66332-4 0  9990
2 42004  97.4730  65.2279 0006856 238.1801 121.8768 15.23771888 48253
FLOCK 3P-45             
1 42005U 17008BK  17364.83390664  .00002651  00000-0  11270-3 0  9995
2 42005  97.4735  65.6302 0006833 236.3606 123.6979 15.23906636 48466
FLOCK 3P-48             
1 42006U 17008BL  17364.24495551  .00001378  00000-0  60292-4 0  9996
2 42006  97.4736  65.0461 0006716 239.8272 120.2300 15.23755662 48164
FLOCK 3P-43             
1 42007U 17008BM  17364.63874464  .00000901  00000-0  40574-4 0  9996
2 42007  97.4733  65.4268 0006709 237.7480 122.3107 15.23669628 48435
FLOCK 3P-42             
1 42008U 17008BN  17364.76880438  .00002112  00000-0  90825-4 0  9999
2 42008  97.4734  65.5522 0006742 236.8764 123.1826 15.23749695 48387
FLOCK 3P-61             
1 42009U 17008BP  17364.24242820  .00002515  00000-0  10764-3 0  9990
2 42009  97.4733  65.0367 0006554 242.1996 117.8577 15.23729910 48355
FLOCK 3P-40             
1 42010U 17008BQ  17364.43323264  .00003141  00000-0  13371-3 0  9998
2 42010  97.4732  65.2184 0006510 242.0340 118.0238 15.23727833 47649
FLOCK 3P-16             
1 42011U 17008BR  17364.42147018  .00003323  00000-0  14134-3 0  9999
2 42011  97.4732  65.2374 0006141 242.3140 117.7474 15.23714930 47587
FLOCK 3P-14             
1 42012U 17008BS  17364.35635010  .00002082  00000-0  89460-4 0  9992
2 42012  97.4740  65.1886 0006381 244.5385 115.5192 15.23798845 48193
FLOCK 3P-53             
1 42013U 17008BT  17364.22840844  .00001431  00000-0  62467-4 0  9997
2 42013  97.4723  65.0185 0006155 243.7597 116.3008 15.23764629 48177
FLOCK 3P-54             
1 42014U 17008BU  17364.42825441  .00003152  00000-0  13426-3 0  9998
2 42014  97.4734  65.2297 0006111 243.5575 116.5035 15.23700564 48419
PEASSS                  
1 42015U 17008BV  17364.60495143  .00001401  00000-0  61601-4 0  9995
2 42015  97.4713  65.4214 0005169 245.8557 114.2140 15.23570385 48244
AL-FARABI 1             
1 42016U 17008BW  17364.57152554  .00001750  00000-0  75493-4 0  9999
2 42016  97.4718  65.4792 0005088 246.4139 113.6564 15.23878430 48362
NAYIF-1 (EO-88)         
1 42017U 17008BX  17364.83085448  .00001745  00000-0  75247-4 0  9997
2 42017  97.4716  65.7423 0005067 245.6629 114.4079 15.23898782 48426
FLOCK 3P-23             
1 42018U 17008BY  17364.42702872  .00003128  00000-0  13321-3 0  9991
2 42018  97.4729  65.0666 0007871 214.0312 146.0421 15.23701210 47179
FLOCK 3P-76             
1 42019U 17008BZ  17364.13173255  .00001438  00000-0  62758-4 0  9998
2 42019  97.4757  64.9888 0007378 222.0241 138.0431 15.23761215 48193
FLOCK 3P-69             
1 42020U 17008CA  17364.39294036  .00001332  00000-0  58352-4 0  9997
2 42020  97.4756  65.2518 0007292 219.3736 140.6972 15.23770013 47128
FLOCK 3P-84             
1 42021U 17008CB  17364.60009209  .00001559  00000-0  67854-4 0  9996
2 42021  97.4751  65.4164 0007665 218.7147 141.3541 15.23741474 48272
FLOCK 3P-59             
1 42022U 17008CC  17364.59950599  .00002642  00000-0  11257-3 0  9991
2 42022  97.4735  65.3314 0007104 218.5279 141.5452 15.23835101 47298
FLOCK 3P-32             
1 42023U 17008CD  17364.60429633  .00001516  00000-0  66112-4 0  9994
2 42023  97.4732  65.3277 0007184 214.3884 145.6889 15.23709707 48436
FLOCK 3P-71             
1 42024U 17008CE  17364.42478562  .00002620  00000-0  11205-3 0  9999
2 42024  97.4759  65.2158 0007406 221.1420 138.9259 15.23721871 47275
FLOCK 3P-77             
1 42025U 17008CF  17364.39556617  .00001305  00000-0  57234-4 0  9996
2 42025  97.4755  65.2382 0007322 221.1793 138.8893 15.23758697 48248
FLOCK 3P-80             
1 42026U 17008CG  17364.83811856  .00001353  00000-0  59044-4 0  9999
2 42026  97.4756  65.7143 0006961 219.1426 140.9308 15.23869651 46457
FLOCK 3P-66             
1 42027U 17008CH  17364.77821314  .00001404  00000-0  61370-4 0  9995
2 42027  97.4734  65.5587 0007143 233.5603 126.4976 15.23762562 48415
FLOCK 3P-65             
1 42028U 17008CJ  17364.11953993  .00001171  00000-0  51643-4 0  9996
2 42028  97.4735  64.9065 0006950 236.5906 123.4667 15.23771381 48216
FLOCK 3P-50             
1 42029U 17008CK  17364.44440487  .00001325  00000-0  58064-4 0  9997
2 42029  97.4737  65.2473 0006770 237.7821 122.2760 15.23769241 47587
FLOCK 3P-52             
1 42030U 17008CL  17364.11807162  .00001590  00000-0  69132-4 0  9992
2 42030  97.4734  64.9038 0006854 238.1787 121.8783 15.23748856 48308
FLOCK 3P-46             
1 42031U 17008CM  17364.76956826  .00001211  00000-0  53375-4 0  9998
2 42031  97.4729  65.5559 0006814 236.5514 123.5071 15.23750347 48435
FLOCK 3P-47             
1 42032U 17008CN  17364.24592924  .00001405  00000-0  61429-4 0  9991
2 42032  97.4730  65.0288 0006710 239.5412 120.5162 15.23749849 48205
FLOCK 3P-44             
1 42033U 17008CP  17364.24066177  .00000894  00000-0  40289-4 0  9990
2 42033  97.4735  65.0459 0006762 242.4042 117.6508 15.23649660 46951
FLOCK 3P-64             
1 42034U 17008CQ  17364.30617640  .00003468  00000-0  14726-3 0  9991
2 42034  97.4735  65.0952 0006591 241.1919 118.8657 15.23733233 48386
FLOCK 3P-63             
1 42035U 17008CR  17364.82903127  .00003522  00000-0  14972-3 0  9991
2 42035  97.4730  65.6160 0006587 238.8743 121.1848 15.23692002 46433
FLOCK 3P-62             
1 42036U 17008CS  17364.61031481  .00002563  00000-0  10885-3 0  9997
2 42036  97.4733  65.4555 0006596 242.0798 117.9772 15.23983503 47608
FLOCK 3P-38             
1 42037U 17008CT  17364.43372115  .00003375  00000-0  14354-3 0  9997
2 42037  97.4735  65.2280 0006291 241.2739 118.7866 15.23702491 48353
FLOCK 3P-39             
1 42038U 17008CU  17364.82529690  .00002427  00000-0  10407-3 0  9995
2 42038  97.4728  65.6086 0006515 240.3161 119.7428 15.23707900 48368
